NORAD_CAT_ID,OBJECT_NAME,OBJECT_TYPE,EPOCH,MEAN_MOTION,ECCENTRICITY,INCLINATION,RA_OF_ASC_NODE,ARG_OF_PERICENTER,MEAN_ANOMALY,BSTAR,MEAN_MOTION_DOT,MEAN_MOTION_DDOT,TLE_LINE0,TLE_LINE1,TLE_LINE2,SEMIMAJOR_AXIS,PERIOD,APOGEE,PERIGEE,DECAYED
52874.0,STARLINK-4210,PAYLOAD,2024-08-15 05:56:10,15.08870291,0.0001564,53.2158,59.4261,101.7584,258.3584,0.0011533,0.0001813,0.0,0 STARLINK-4210,1 52874U 22062AW  24228.24734129  .00018130  00000-0  11533-2 0  9996,2 52874  53.2158  59.4261 0001564 101.7584 258.3584 15.08870291119794,6917.788,95.436,540.735,538.571,0.0
52874.0,STARLINK-4210,PAYLOAD,2024-08-15 20:14:38,15.08858684,0.0001844,53.2158,56.7488,98.1675,261.9526,0.001139,0.00017895,0.0,0 STARLINK-4210,1 52874U 22062AW  24228.84349958  .00017895  00000-0  11390-2 0  9992,2 52874  53.2158  56.7488 0001844  98.1675 261.9526 15.08858684120370,6917.823,95.436,540.964,538.413,0.0
52874.0,STARLINK-4210,PAYLOAD,2024-08-16 05:46:56,15.08865357,0.0001848,53.2155,54.9633,95.9077,264.2126,0.0012046,0.00018949,0.0,0 STARLINK-4210,1 52874U 22062AW  24229.24093549  .00018949  00000-0  12046-2 0  9999,2 52874  53.2155  54.9633 0001848  95.9077 264.2126 15.08865357119942,6917.803,95.436,540.946,538.389,0.0
52874.0,STARLINK-4210,PAYLOAD,2024-08-17 11:59:16,15.08869693,0.0001487,53.2158,49.3163,96.6565,263.4596,0.001605,0.00025369,0.0,0 STARLINK-4210,1 52874U 22062AW  24230.49949248  .00025369  00000-0  16050-2 0  9997,2 52874  53.2158  49.3163 0001487  96.6565 263.4596 15.08869693120626,6917.79,95.436,540.683,538.626,0.0
52874.0,STARLINK-4210,PAYLOAD,2024-08-17 21:31:34,15.08875216,0.0001917,53.2161,47.5325,258.2459,101.8319,0.0017828,0.00028227,0.0,0 STARLINK-4210,1 52874U 22062AW  24230.89692198  .00028227  00000-0  17828-2 0  9990,2 52874  53.2161  47.5325 0001917 258.2459 101.8319 15.08875216120194,6917.773,95.435,540.964,538.312,0.0
52874.0,STARLINK-4210,PAYLOAD,2024-08-18 11:50:03,15.08850127,0.0001811,53.2153,44.856,78.8023,281.3172,0.00086047,0.00013437,0.0,0 STARLINK-4210,1 52874U 22062AW  24231.49309434  .00013437  00000-0  86047-3 0  9992,2 52874  53.2153  44.8560 0001811  78.8023 281.3172 15.08850127120771,6917.849,95.437,540.967,538.462,0.0
52874.0,STARLINK-4210,PAYLOAD,2024-08-18 16:36:12,15.08847317,0.0001423,53.2181,43.9635,92.2083,267.9072,0.00031913,4.796e-05,0.0,0 STARLINK-4210,1 52874U 22062AW  24231.69181184  .00004796  00000-0  31913-3 0  9994,2 52874  53.2181  43.9635 0001423  92.2083 267.9072 15.08847317120316,6917.858,95.437,540.707,538.739,0.0
52874.0,STARLINK-4210,PAYLOAD,2024-08-19 11:40:50,15.08836577,0.0001569,53.2194,40.4002,67.8957,292.2202,5.4934e-05,5.86e-06,0.0,0 STARLINK-4210,1 52874U 22062AW  24232.48669762  .00000586  00000-0  54934-4 0  9997,2 52874  53.2194  40.4002 0001569  67.8957 292.2202 15.08836577120928,6917.891,95.438,540.841,538.67,0.0
52874.0,STARLINK-4210,PAYLOAD,2024-08-20 03:34:41,15.08845328,0.0001994,53.2189,37.4237,83.7085,276.4134,-6.1958e-05,-1.274e-05,0.0,0 STARLINK-4210,1 52874U 22062AW  24233.14909381 -.00001274  00000-0 -61958-4 0  9996,2 52874  53.2189  37.4237 0001994  83.7085 276.4134 15.08845328121023,6917.864,95.437,541.109,538.35,0.0
52874.0,STARLINK-4210,PAYLOAD,2024-08-20 14:42:23,15.08839694,0.0001666,53.2183,35.3397,101.733,258.3849,4.1254e-05,3.69e-06,0.0,0 STARLINK-4210,1 52874U 22062AW  24233.61277585  .00000369  00000-0  41254-4 0  9991,2 52874  53.2183  35.3397 0001666 101.7330 258.3849 15.08839694120605,6917.881,95.438,540.899,538.594,0.0
52874.0,STARLINK-4210,PAYLOAD,2024-08-21 11:22:24,15.08836225,0.0001694,53.2197,31.4736,107.6992,252.4185,0.00012366,1.68e-05,0.0,0 STARLINK-4210,1 52874U 22062AW  24234.47389887  .00001680  00000-0  12366-3 0  9993,2 52874  53.2197  31.4736 0001694 107.6992 252.4185 15.08836225121228,6917.892,95.438,540.929,538.585,0.0
52874.0,STARLINK-4210,PAYLOAD,2024-08-21 14:33:11,15.08834683,0.0001169,53.2186,30.8777,95.2723,264.8403,7.1872e-05,8.56e-06,0.0,0 STARLINK-4210,1 52874U 22062AW  24234.60638190  .00000856  00000-0  71872-4 0  9994,2 52874  53.2186  30.8777 0001169  95.2723 264.8403 15.08834683120758,6917.897,95.438,540.57,538.953,0.0
52874.0,STARLINK-4210,PAYLOAD,2024-08-21 16:08:34,15.08832421,0.0001345,53.2194,30.5812,103.0481,257.0661,5.0341e-05,5.13e-06,0.0,0 STARLINK-4210,1 52874U 22062AW  24234.67262393  .00000513  00000-0  50341-4 0  9997,2 52874  53.2194  30.5812 0001345 103.0481 257.0661 15.08832421121253,6917.904,95.438,540.699,538.838,0.0
